[{"OBJECT_NAME":"SAPPHIRE","OBJECT_ID":"2013-009C","EPOCH":"2026-03-09T22:57:28.647648","MEAN_MOTION":14.35209243,"ECCENTRICITY":0.00112275,"INCLINATION":98.4222,"RA_OF_ASC_NODE":250.7769,"ARG_OF_PERICENTER":178.7646,"MEAN_ANOMALY":181.357,"EPHEMERIS_TYPE":0,"CLASSIFICATION_TYPE":"U","NORAD_CAT_ID":39088,"ELEMENT_SET_NO":999,"REV_AT_EPOCH":68234,"BSTAR":9.3997997e-5,"MEAN_MOTION_DOT":2.26e-6,"MEAN_MOTION_DDOT":0},{"OBJECT_NAME":"SL-8 R\/B","OBJECT_ID":"1971-114B","EPOCH":"2026-03-09T20:11:12.592608","MEAN_MOTION":14.40454556,"ECCENTRICITY":0.00244378,"INCLINATION":74.0281,"RA_OF_ASC_NODE":320.6774,"ARG_OF_PERICENTER":328.4755,"MEAN_ANOMALY":31.4934,"EPHEMERIS_TYPE":0,"CLASSIFICATION_TYPE":"U","NORAD_CAT_ID":5707,"ELEMENT_SET_NO":999,"REV_AT_EPOCH":84116,"BSTAR":0.00010841577,"MEAN_MOTION_DOT":3.19e-6,"MEAN_MOTION_DDOT":0}]
